LANDSAT 9               
1 49260U 21088A   24086.90515784  .00001174  00000+0  27047-3 0  9994
2 49260  98.1935 157.8947 0001404  90.3831 269.7529 14.57134967132713
